ONEWEB-0120             
1 47266U 20100J   25021.60136453 -.00000685  00000+0 -19402-2 0  9994
2 47266  87.8862  92.5411 0001997 102.1017 258.0336 13.12442371197626
ONEWEB-0121             
1 47267U 20100K   25021.58987419 -.00000245  00000+0 -71527-3 0  9997
2 47267  87.8856  92.5232 0001776 106.9379 253.1944 13.12440001197538
ONEWEB-0122             
1 47268U 20100L   25021.58487800 -.00000067  00000+0 -22248-3 0  9995
2 47268  87.8857  92.5295 0001919 106.3728 253.7612 13.12441893197448
ONEWEB-0123             
1 47269U 20100M   25021.58014999  .00000095  00000+0  22745-3 0  9992
2 47269  87.8860  92.5520 0001854 100.4534 259.6804 13.12440347197588
ONEWEB-0124             
1 47270U 20100N   25021.56879539  .00000434  00000+0  11723-2 0  9991
2 47270  87.8860  92.5516 0001605 104.2268 255.9039 13.12442393197464
ONEWEB-0125             
1 47271U 20100P   25021.62232228  .00000047  00000+0  95700-4 0  9996
2 47271  87.8861  92.5020 0001632  94.4682 265.6633 13.12443235197538
ONEWEB-0126             
1 47272U 20100Q   25021.57122650  .00000332  00000+0  88621-3 0  9998
2 47272  87.8858  92.5102 0001968 102.3166 257.8183 13.12443074197594
ONEWEB-0127             
1 47273U 20100R   25021.60934573 -.00000346  00000+0 -99668-3 0  9998
2 47273  87.8861  92.5378 0001960 105.0711 255.0634 13.12442672197620
